{
  "type": "FeatureCollection",
  "features": [
    {
      "type": "Feature",
      "properties": {
        "norad_id": 43602,
        "name": "BEIDOU-3 M12 (C26)",
        "group": "beidou",
        "lat": -46.00778666156447,
        "lon": 55.80670805298207,
        "alt_km": 21557.394398859098,
        "timestamp": "2025-12-12T09:49:08.996505+00:00",
        "meta_object_name": "BEIDOU-3 M12 (C26)",
        "meta_object_id": "2018-067A",
        "meta_epoch": "2025-12-11T12:15:06.004224",
        "meta_mean_motion": 1.86227612,
        "meta_eccentricity": 0.00091491,
        "meta_inclination": 54.1831,
        "meta_ra_of_asc_node": 187.4051,
        "meta_arg_of_pericenter": 41.0073,
        "meta_mean_anomaly": 319.1184,
        "meta_ephemeris_type": 0,
        "meta_classification_type": "U",
        "meta_norad_cat_id": 43602,
        "meta_element_set_no": 999,
        "meta_rev_at_epoch": 4962,
        "meta_bstar": 0,
        "meta_mean_motion_dot": 7.1e-07,
        "meta_mean_motion_ddot": 0,
        "tle_line1": "1 43602U 18067A   25345.51048616  .00000071  00000+0  00000+0 0  9993",
        "tle_line2": "2 43602  54.1831 187.4051 0009149  41.0073 319.1184  1.86227612 49626"
      },
      "geometry": {
        "type": "Point",
        "coordinates": [
          55.80670805298207,
          -46.00778666156447
        ]
      }
    },
    {
      "type": "Feature",
      "properties": {
        "norad_id": 43603,
        "name": "BEIDOU-3 M11 (C25)",
        "group": "beidou",
        "lat": 22.019914794446244,
        "lon": -9.64119662467405,
        "alt_km": 21532.493744133626,
        "timestamp": "2025-12-12T09:49:08.996518+00:00",
        "meta_object_name": "BEIDOU-3 M11 (C25)",
        "meta_object_id": "2018-067B",
        "meta_epoch": "2025-12-11T15:28:47.340768",
        "meta_mean_motion": 1.86227129,
        "meta_eccentricity": 0.0005575,
        "meta_inclination": 54.1804,
        "meta_ra_of_asc_node": 187.3644,
        "meta_arg_of_pericenter": 36.7806,
        "meta_mean_anomaly": 323.3147,
        "meta_ephemeris_type": 0,
        "meta_classification_type": "U",
        "meta_norad_cat_id": 43603,
        "meta_element_set_no": 999,
        "meta_rev_at_epoch": 4965,
        "meta_bstar": 0,
        "meta_mean_motion_dot": 7.3e-07,
        "meta_mean_motion_ddot": 0,
        "tle_line1": "1 43603U 18067B   25345.64499237  .00000073  00000+0  00000+0 0  9999",
        "tle_line2": "2 43603  54.1804 187.3644 0005575  36.7806 323.3147  1.86227129 49650"
      },
      "geometry": {
        "type": "Point",
        "coordinates": [
          -9.64119662467405,
          22.019914794446244
        ]
      }
    },
    {
      "type": "Feature",
      "properties": {
        "norad_id": 43622,
        "name": "BEIDOU-3 M13 (C32)",
        "group": "beidou",
        "lat": -1.1704224333285622,
        "lon": -110.38566906730287,
        "alt_km": 21535.93135072402,
        "timestamp": "2025-12-12T09:49:08.996533+00:00",
        "meta_object_name": "BEIDOU-3 M13 (C32)",
        "meta_object_id": "2018-072A",
        "meta_epoch": "2025-12-09T23:46:31.895616",
        "meta_mean_motion": 1.8623066,
        "meta_eccentricity": 0.00056577,
        "meta_inclination": 56.4568,
        "meta_ra_of_asc_node": 68.9118,
        "meta_arg_of_pericenter": 299.2639,
        "meta_mean_anomaly": 60.7025,
        "meta_ephemeris_type": 0,
        "meta_classification_type": "U",
        "meta_norad_cat_id": 43622,
        "meta_element_set_no": 999,
        "meta_rev_at_epoch": 4913,
        "meta_bstar": 0,
        "meta_mean_motion_dot": -5.2e-07,
        "meta_mean_motion_ddot": 0,
        "tle_line1": "1 43622U 18072A   25343.99064694 -.00000052  00000+0  00000+0 0  9995",
        "tle_line2": "2 43622  56.4568  68.9118 0005657 299.2639  60.7025  1.86230660 49138"
      },
      "geometry": {
        "type": "Point",
        "coordinates": [
          -110.38566906730287,
          -1.1704224333285622
        ]
      }
    },
    {
      "type": "Feature",
      "properties": {
        "norad_id": 43623,
        "name": "BEIDOU-3 M14 (C33)",
        "group": "beidou",
        "lat": -56.443549458841865,
        "lon": -18.198862387337346,
        "alt_km": 21530.148077615737,
        "timestamp": "2025-12-12T09:49:08.996545+00:00",
        "meta_object_name": "BEIDOU-3 M14 (C33)",
        "meta_object_id": "2018-072B",
        "meta_epoch": "2025-12-09T20:32:48.183072",
        "meta_mean_motion": 1.86230666,
        "meta_eccentricity": 0.00032297,
        "meta_inclination": 56.4585,
        "meta_ra_of_asc_node": 68.9098,
        "meta_arg_of_pericenter": 335.6302,
        "meta_mean_anomaly": 24.3775,
        "meta_ephemeris_type": 0,
        "meta_classification_type": "U",
        "meta_norad_cat_id": 43623,
        "meta_element_set_no": 999,
        "meta_rev_at_epoch": 4912,
        "meta_bstar": 0,
        "meta_mean_motion_dot": -5.1e-07,
        "meta_mean_motion_ddot": 0,
        "tle_line1": "1 43623U 18072B   25343.85611323 -.00000051  00000+0  00000+0 0  9997",
        "tle_line2": "2 43623  56.4585  68.9098 0003229 335.6302  24.3775  1.86230666 49123"
      },
      "geometry": {
        "type": "Point",
        "coordinates": [
          -18.198862387337346,
          -56.443549458841865
        ]
      }
    },
    {
      "type": "Feature",
      "properties": {
        "norad_id": 43647,
        "name": "BEIDOU-3 M16 (C35)",
        "group": "beidou",
        "lat": 11.347582188536368,
        "lon": 118.21226983765771,
        "alt_km": 21543.396820996066,
        "timestamp": "2025-12-12T09:49:08.996556+00:00",
        "meta_object_name": "BEIDOU-3 M16 (C35)",
        "meta_object_id": "2018-078A",
        "meta_epoch": "2025-12-12T03:52:56.248896",
        "meta_mean_motion": 1.86232291,
        "meta_eccentricity": 0.0007175,
        "meta_inclination": 54.2625,
        "meta_ra_of_asc_node": 306.5413,
        "meta_arg_of_pericenter": 19.216,
        "meta_mean_anomaly": 340.802,
        "meta_ephemeris_type": 0,
        "meta_classification_type": "U",
        "meta_norad_cat_id": 43647,
        "meta_element_set_no": 999,
        "meta_rev_at_epoch": 4867,
        "meta_bstar": 0,
        "meta_mean_motion_dot": -9.2e-07,
        "meta_mean_motion_ddot": 0,
        "tle_line1": "1 43647U 18078A   25346.16176214 -.00000092  00000+0  00000+0 0  9996",
        "tle_line2": "2 43647  54.2625 306.5413 0007175  19.2160 340.8020  1.86232291 48677"
      },
      "geometry": {
        "type": "Point",
        "coordinates": [
          118.21226983765771,
          11.347582188536368
        ]
      }
    },
    {
      "type": "Feature",
      "properties": {
        "norad_id": 43648,
        "name": "BEIDOU-3 M15 (C34)",
        "group": "beidou",
        "lat": 52.89205238661298,
        "lon": 18.557463266499855,
        "alt_km": 21516.90254526951,
        "timestamp": "2025-12-12T09:49:08.996568+00:00",
        "meta_object_name": "BEIDOU-3 M15 (C34)",
        "meta_object_id": "2018-078B",
        "meta_epoch": "2025-12-09T14:32:59.144640",
        "meta_mean_motion": 1.86231871,
        "meta_eccentricity": 0.0003622,
        "meta_inclination": 54.2606,
        "meta_ra_of_asc_node": 306.6314,
        "meta_arg_of_pericenter": 18.0065,
        "meta_mean_anomaly": 341.9965,
        "meta_ephemeris_type": 0,
        "meta_classification_type": "U",
        "meta_norad_cat_id": 43648,
        "meta_element_set_no": 999,
        "meta_rev_at_epoch": 4864,
        "meta_bstar": 0,
        "meta_mean_motion_dot": -7.7e-07,
        "meta_mean_motion_ddot": 0,
        "tle_line1": "1 43648U 18078B   25343.60624010 -.00000077  00000+0  00000+0 0  9998",
        "tle_line2": "2 43648  54.2606 306.6314 0003622  18.0065 341.9965  1.86231871 48642"
      },
      "geometry": {
        "type": "Point",
        "coordinates": [
          18.557463266499855,
          52.89205238661298
        ]
      }
    },
    {
      "type": "Feature",
      "properties": {
        "norad_id": 43683,
        "name": "BEIDOU-3 G1 (C59)",
        "group": "beidou",
        "lat": -2.590735522745485,
        "lon": 8.698655589213667,
        "alt_km": 35793.50967980375,
        "timestamp": "2025-12-12T09:49:08.996580+00:00",
        "meta_object_name": "BEIDOU-3 G1 (C59)",
        "meta_object_id": "2018-085A",
        "meta_epoch": "2025-12-12T03:52:21.365760",
        "meta_mean_motion": 1.00270846,
        "meta_eccentricity": 0.000175,
        "meta_inclination": 2.6065,
        "meta_ra_of_asc_node": 102.9939,
        "meta_arg_of_pericenter": 63.332,
        "meta_mean_anomaly": 112.9448,
        "meta_ephemeris_type": 0,
        "meta_classification_type": "U",
        "meta_norad_cat_id": 43683,
        "meta_element_set_no": 999,
        "meta_rev_at_epoch": 2618,
        "meta_bstar": 0,
        "meta_mean_motion_dot": -2.67e-06,
        "meta_mean_motion_ddot": 0,
        "tle_line1": "1 43683U 18085A   25346.16135840 -.00000267  00000+0  00000+0 0  9998",
        "tle_line2": "2 43683   2.6065 102.9939 0001750  63.3320 112.9448  1.00270846 26182"
      },
      "geometry": {
        "type": "Point",
        "coordinates": [
          8.698655589213667,
          -2.590735522745485
        ]
      }
    }
  ]
}